[{"OBJECT_NAME":"STARLINK-4563","OBJECT_ID":"2022-101AL","EPOCH":"2026-03-09T09:11:33.607104","MEAN_MOTION":15.08842859,"ECCENTRICITY":0.00013959,"INCLINATION":53.2178,"RA_OF_ASC_NODE":65.4938,"ARG_OF_PERICENTER":84.028,"MEAN_ANOMALY":276.0872,"EPHEMERIS_TYPE":0,"CLASSIFICATION_TYPE":"U","NORAD_CAT_ID":53561,"ELEMENT_SET_NO":999,"REV_AT_EPOCH":19626,"BSTAR":1.1285832e-5,"MEAN_MOTION_DOT":-1.08e-6,"MEAN_MOTION_DDOT":0},{"OBJECT_NAME":"CZ-6A DEB","OBJECT_ID":"2024-140PS","EPOCH":"2026-03-09T14:06:57.647808","MEAN_MOTION":14.7419151,"ECCENTRICITY":0.0174551,"INCLINATION":88.9937,"RA_OF_ASC_NODE":280.0508,"ARG_OF_PERICENTER":181.2195,"MEAN_ANOMALY":178.8626,"EPHEMERIS_TYPE":0,"CLASSIFICATION_TYPE":"U","NORAD_CAT_ID":61124,"ELEMENT_SET_NO":999,"REV_AT_EPOCH":8308,"BSTAR":0.00056687,"MEAN_MOTION_DOT":4.809e-5,"MEAN_MOTION_DDOT":0}]
